1 08820U 76039A   03268.80095088 -.00000000  00000-0  10000-3 0  9704
2 08820 109.8174 216.0311 0044465 279.9887  79.5639  6.38664519383480
